{"version": 0.6, "generator": "Overpass API 0.7.57 93a4d346", "osm3s": {"timestamp_osm_base": "2022-04-21T15:42:59Z", "copyright": "The data included in this document is from www.openstreetmap.org. The data is made available under ODbL."}, "elements": [{"type": "node", "id": 1276546921, "lat": 38.0122729, "lon": -84.518551, "tags": {"addr:housenumber": "185", "addr:postcode": "40503-1926", "addr:state": "KY", "addr:street": "Southland Drive", "amenity": "cafe", "cuisine": "coffee_shop", "name": "Donut Days Bakery"}}, {"type": "node", "id": 1439802043, "lat": 38.0336257, "lon": -84.50954, "tags": {"addr:housename": "College of Pharmacy Building", "amenity": "cafe", "cost:coffee": "$1.45", "cuisine": "hot food", "name": "Apothecary Cafe", "opening_hours": "Mo-Fr 07:00+"}}, {"type": "node", "id": 1439802046, "lat": 38.0325926, "lon": -84.5013532, "tags": {"amenity": "cafe", "brand": "Starbucks", "brand:wikidata": "Q37158", "brand:wikipedia": "en:Starbucks", "cuisine": "coffee_shop", "name": "Starbucks", "note": "cheapest coffee $1.95, no hot food", "official_name": "Starbucks Coffee", "opening_hours": "Mo-Th 07:00-13:00, Fr 07:00-20:00, Sa 11:00-20:00, Su 11:00-13:00", "takeaway": "yes", "website": "http://www.uky.edu/DiningServices/starbucks.html", "wheelchair": "yes"}}, {"type": "node", "id": 1439817685, "lat": 38.0363256, "lon": -84.5064168, "tags": {"addr:housename": "Erickson Hall", "amenity": "cafe", "cost:coffee": "$1.45", "cuisine": "regional", "name": "Fusion", "opening_hours": "Mo-Fr 07:30+"}}, {"type": "node", "id": 1439817688, "lat": 38.0378044, "lon": -84.5066636, "tags": {"addr:housename": "Business and Economics Building", "amenity": "cafe", "cost:coffee": "$1.45", "cuisine": "coffee_shop", "name": "Blue Chips Cafe", "opening_hours": "Mo-Fr 07:30+"}}, {"type": "node", "id": 1577472667, "lat": 38.0307089, "lon": -84.4903058, "tags": {"amenity": "cafe", "brand": "Starbucks", "brand:wikidata": "Q37158", "brand:wikipedia": "en:Starbucks", "cuisine": "coffee_shop", "internet_access": "wlan", "internet_access:fee": "no", "name": "Starbucks", "official_name": "Starbucks Coffee", "takeaway": "yes"}}, {"type": "node", "id": 1586515852, "lat": 37.997828, "lon": -84.520744}, {"type": "node", "id": 1627106292, "lat": 38.0413402, "lon": -84.5016141, "tags": {"amenity": "cafe", "name": "Blazer Cafe"}}, {"type": "node", "id": 1627106293, "lat": 38.0288843, "lon": -84.5093067, "tags": {"addr:city": "Lexington", "addr:housenumber": "S123", "addr:postcode": "40506", "addr:state": "KY", "addr:street": "Uk Ag Science Drive", "amenity": "cafe", "cuisine": "coffee_shop", "name": "Common Grounds Coffee House - Ag North", "opening_hours": "Mo-Su 07:00-14:00", "outdoor_seating": "no"}}, {"type": "node", "id": 1630858280, "lat": 38.039011, "lon": -84.5141473}, {"type": "node", "id": 2390667371, "lat": 38.0539191, "lon": -84.4867068}, {"type": "node", "id": 2390667373, "lat": 38.0538516, "lon": -84.4866315}, {"type": "node", "id": 2390667375, "lat": 38.0539226, "lon": -84.4865289}, {"type": "node", "id": 2390667376, "lat": 38.0539901, "lon": -84.4866043}, {"type": "node", "id": 2390689485, "lat": 38.0573013, "lon": -84.4813709}, {"type": "node", "id": 2390689492, "lat": 38.0573681, "lon": -84.4812718}, {"type": "node", "id": 2390689494, "lat": 38.0572599, "lon": -84.4811605}, {"type": "node", "id": 2390689497, "lat": 38.0572316, "lon": -84.4812061}, {"type": "node", "id": 2390689503, "lat": 38.0572008, "lon": -84.481251}, {"type": "node", "id": 2496183937, "lat": 37.9965743, "lon": -84.5859958}, {"type": "node", "id": 2496184900, "lat": 38.0381823, "lon": -84.4996103, "tags": {"addr:city": "Lexington", "addr:housename": "Coffea", "addr:housenumber": "385", "addr:state": "KY", "addr:street": "Rose Street", "amenity": "cafe", "cuisine": "coffee_shop", "internet_access": "yes", "name": "Coffea"}}, {"type": "node", "id": 2496656012, "lat": 38.0408248, "lon": -84.4241006}, {"type": "node", "id": 2512387315, "lat": 38.0408317, "lon": -84.4241877}, {"type": "node", "id": 2512387317, "lat": 38.0406478, "lon": -84.4241231}, {"type": "node", "id": 2512387318, "lat": 38.0406547, "lon": -84.4242103}, {"type": "node", "id": 2684629779, "lat": 38.049368, "lon": -84.4930059, "tags": {"amenity": "cafe", "internet_access": "yes", "name": "Third Street Stuff"}}, {"type": "node", "id": 2685225477, "lat": 38.0012681, "lon": -84.5252424, "tags": {"addr:city": "Lexington", "addr:housename": "Coffee Times Coffee House", "addr:housenumber": "2571", "addr:postcode": "40503", "addr:street": "Regency Road", "amenity": "cafe", "cuisine": "coffee_shop", "name": "Coffee Times Coffee House"}}, {"type": "node", "id": 2685239425, "lat": 38.0417667, "lon": -84.4913632, "tags": {"addr:city": "Lexington", "addr:housenumber": "105", "addr:postcode": "40508", "addr:street": "Eastern Avenue", "amenity": "cafe", "cuisine": "coffee_shop", "internet_access": "yes", "internet_access:fee": "no", "name": "A Cup of Commonwealth", "opening_hours": "06:00-22:00", "outdoor_seating": "yes", "website": "http://acupofcommonwealth.com/"}}, {"type": "node", "id": 2685296470, "lat": 38.0461008, "lon": -84.5547387, "tags": {"addr:city": "Lexington", "addr:housenumber": "2320", "addr:postcode": "40504", "addr:street": "Versailles Road", "amenity": "cafe", "brand": "Starbucks", "brand:wikidata": "Q37158", "brand:wikipedia": "en:Starbucks", "cuisine": "coffee_shop", "internet_access": "yes", "name": "Starbucks", "official_name": "Starbucks Coffee", "opening_hours": "Mo-Su 05:30-23:00", "takeaway": "yes"}}, {"type": "node", "id": 3158032467, "lat": 38.022507, "lon": -84.5592242, "tags": {"amenity": "cafe", "brand": "Starbucks", "brand:wikidata": "Q37158", "brand:wikipedia": "en:Starbucks", "cuisine": "coffee_shop", "name": "Starbucks", "official_name": "Starbucks Coffee", "takeaway": "yes"}}, {"type": "node", "id": 3158100562, "lat": 38.0375664, "lon": -84.5047836, "tags": {"addr:city": "Lexington", "addr:housenumber": "512", "addr:postcode": "40508", "addr:state": "KY", "addr:street": "Administration Drive", "amenity": "cafe", "cuisine": "Soup,_Sandwich_&_Salads", "internet_access": "wlan", "name": "Rising Roll Gourmet", "opening_hours": "Mo-Fr 7:30-15:00", "smoking": "no"}}, {"type": "node", "id": 3158598336, "lat": 38.0387182, "lon": -84.504156, "tags": {"addr:city": "Lexington", "addr:housenumber": "120", "addr:postcode": "40508", "addr:state": "KY", "addr:street": "Patterson Drive", "amenity": "cafe", "cuisine": "sandwich", "internet_access": "wlan", "level": "M", "name": "Intermezzo", "opening_hours": "Mo-Th 08:00-17:00, Fr 08:00-15:00", "smoking": "no"}}, {"type": "node", "id": 3158598337, "lat": 38.0398347, "lon": -84.5017447, "tags": {"amenity": "cafe", "cuisine": "coffee_shop", "internet_access": "wlan", "name": "Common Grounds Coffee House", "opening_hours": "Mo-Fr 07:00-23:00; Sa,Su closed"}}, {"type": "node", "id": 3165865697, "lat": 38.0380719, "lon": -84.4996939, "tags": {"addr:city": "Lexington", "addr:state": "KY", "addr:street": "Rose Street", "amenity": "cafe", "name": "Campus cafe"}}, {"type": "node", "id": 3230615760, "lat": 38.002728, "lon": -84.4441619, "tags": {"amenity": "cafe", "name": "Edible Arrangments"}}, {"type": "node", "id": 3786306254, "lat": 38.0308374, "lon": -84.4977568}, {"type": "node", "id": 3786306255, "lat": 38.0309284, "lon": -84.4976482}, {"type": "node", "id": 3786306256, "lat": 38.0308704, "lon": -84.4975699}, {"type": "node", "id": 3786307857, "lat": 38.0307794, "lon": -84.4976785}, {"type": "node", "id": 4010457495, "lat": 38.0328932, "lon": -84.5079358, "tags": {"amenity": "cafe", "brand": "Starbucks", "brand:wikidata": "Q37158", "brand:wikipedia": "en:Starbucks", "cuisine": "coffee_shop", "name": "Starbucks", "official_name": "Starbucks Coffee", "takeaway": "yes"}}, {"type": "node", "id": 4042865074, "lat": 37.9813114, "lon": -84.5512056}, {"type": "node", "id": 4042865076, "lat": 37.9813157, "lon": -84.551253}, {"type": "node", "id": 4042865085, "lat": 37.9813271, "lon": -84.5512459}, {"type": "node", "id": 4042865090, "lat": 37.9813309, "lon": -84.551292}, {"type": "node", "id": 4042865108, "lat": 37.9813409, "lon": -84.5512857}, {"type": "node", "id": 4042865158, "lat": 37.9813759, "lon": -84.5511652}, {"type": "node", "id": 4042865174, "lat": 37.981388, "lon": -84.5514066}, {"type": "node", "id": 4042865206, "lat": 37.9814079, "lon": -84.5512472}, {"type": "node", "id": 4042865213, "lat": 37.9814102, "lon": -84.5512458}, {"type": "node", "id": 4042865282, "lat": 37.9814562, "lon": -84.5513639}, {"type": "node", "id": 4042896253, "lat": 38.0360475, "lon": -84.4924001, "tags": {"addr:city": "Lexington", "addr:housenumber": "523", "addr:postcode": "40507", "addr:state": "KY", "addr:street": "East High Street", "amenity": "cafe", "cuisine": "sandwich", "internet_access": "wlan", "name": "High on Art and Coffee", "opening_hours": "Mo-Fr 07:00-19:00; Sa 10:00-18:00", "smoking": "no"}}, {"type": "node", "id": 4043996089, "lat": 37.9977924, "lon": -84.5206508}, {"type": "node", "id": 4043996098, "lat": 37.997799, "lon": -84.5207028}, {"type": "node", "id": 4043996107, "lat": 37.997809, "lon": -84.520697}, {"type": "node", "id": 4043996114, "lat": 37.9978163, "lon": -84.5207507}, {"type": "node", "id": 4043996175, "lat": 37.9978646, "lon": -84.5206092}, {"type": "node", "id": 4043996186, "lat": 37.9978731, "lon": -84.520869}, {"type": "node", "id": 4043996353, "lat": 37.9979437, "lon": -84.5208283}, {"type": "node", "id": 4045014268, "lat": 38.0389649, "lon": -84.5142238}, {"type": "node", "id": 4045014668, "lat": 38.0390354, "lon": -84.51431}, {"type": "node", "id": 4045014671, "lat": 38.0390424, "lon": -84.5142985}, {"type": "node", "id": 4045014708, "lat": 38.0390885, "lon": -84.5142222}, {"type": "node", "id": 4045014710, "lat": 38.0390909, "lon": -84.5142183}, {"type": "node", "id": 4045014713, "lat": 38.0390957, "lon": -84.5142229}, {"type": "node", "id": 4045014719, "lat": 38.0391037, "lon": -84.5142096}, {"type": "node", "id": 4045014722, "lat": 38.0391117, "lon": -84.5143835}, {"type": "node", "id": 4045014726, "lat": 38.0391154, "lon": -84.5142401}, {"type": "node", "id": 4045014734, "lat": 38.0391223, "lon": -84.5142507}, {"type": "node", "id": 4045014735, "lat": 38.0391227, "lon": -84.514228}, {"type": "node", "id": 4045014736, "lat": 38.0391238, "lon": -84.5142482}, {"type": "node", "id": 4045014771, "lat": 38.0391663, "lon": -84.5142931}, {"type": "node", "id": 4045032790, "lat": 38.0572735, "lon": -84.4811725}, {"type": "node", "id": 4045032816, "lat": 38.0572843, "lon": -84.4811571}, {"type": "node", "id": 4045032865, "lat": 38.0573091, "lon": -84.4812059}, {"type": "node", "id": 4045032880, "lat": 38.0573174, "lon": -84.4811941}, {"type": "node", "id": 4045032910, "lat": 38.057332, "lon": -84.4813269}, {"type": "node", "id": 4045032924, "lat": 38.057337, "lon": -84.4813324}, {"type": "node", "id": 4045032930, "lat": 38.0573405, "lon": -84.4813113}, {"type": "node", "id": 4045032941, "lat": 38.0573467, "lon": -84.4813184}, {"type": "node", "id": 4059355031, "lat": 37.9965991, "lon": -84.4967635, "tags": {"amenity": "cafe", "name": "The Mouse Trap"}}, {"type": "node", "id": 4062601882, "lat": 37.9965537, "lon": -84.5859886}, {"type": "node", "id": 4062601883, "lat": 37.996571, "lon": -84.5859101}, {"type": "node", "id": 4062601884, "lat": 37.9965719, "lon": -84.586007}, {"type": "node", "id": 4062601887, "lat": 37.9965923, "lon": -84.5859176}, {"type": "node", "id": 4062601889, "lat": 37.9965938, "lon": -84.5859107}, {"type": "node", "id": 4062601895, "lat": 37.9966982, "lon": -84.5859559}, {"type": "node", "id": 4062601896, "lat": 37.9967, "lon": -84.585948}, {"type": "node", "id": 4062601899, "lat": 37.9967222, "lon": -84.5860599}, {"type": "node", "id": 4062601904, "lat": 37.9967417, "lon": -84.5859712}, {"type": "node", "id": 4062650695, "lat": 38.0199142, "lon": -84.5286065, "tags": {"addr:city": "Lexington", "addr:housenumber": "472", "addr:postcode": "40503", "addr:state": "KY", "addr:street": "Southland Drive", "amenity": "cafe", "cuisine": "coffee_shop", "internet_access": "yes", "name": "Cherry Seed Coffee House and Roastery", "opening_hours": "Mo-Fr 7:00-17:00; Sa 8:00-16:00; Su closed", "phone": "+1 859 338 0801", "website": "https://www.cherryseedcoffeeroastery.com/"}}, {"type": "node", "id": 4070762942, "lat": 38.0579094, "lon": -84.4947194}, {"type": "node", "id": 4070762954, "lat": 38.0579419, "lon": -84.494671}, {"type": "node", "id": 4070762984, "lat": 38.0580023, "lon": -84.4948194}, {"type": "node", "id": 4070763102, "lat": 38.0580348, "lon": -84.4947711}, {"type": "node", "id": 4072622959, "lat": 38.0172033, "lon": -84.4185706, "tags": {"addr:city": "Lexington", "addr:housenumber": "1869", "addr:state": "KY", "addr:street": "Plaudit Place", "addr:unit": "110", "amenity": "cafe", "brand": "Starbucks", "brand:wikidata": "Q37158", "brand:wikipedia": "en:Starbucks", "cuisine": "coffee_shop", "name": "Starbucks", "official_name": "Starbucks Coffee", "takeaway": "yes", "website": "https://www.starbucks.com/store-locator/store/13405/hamburg-pavilion-man-o-war-1869-plaudit-place-lexington-ky-405092433-us"}}, {"type": "node", "id": 4197383607, "lat": 38.0380256, "lon": -84.5074415, "tags": {"addr:city": "Lexington", "addr:housenumber": "555", "addr:postcode": "40508", "addr:state": "KY", "addr:street": "South Limestone", "amenity": "cafe", "name": "Prince Hookah", "opening_hours": "14:00-04:00", "smoking": "yes"}}, {"type": "node", "id": 4257077760, "lat": 38.0214678, "lon": -84.4167951, "tags": {"addr:city": "Lexington", "addr:housenumber": "1932", "addr:postcode": "40509", "addr:state": "KY", "addr:street": "Pavilion Way", "amenity": "cafe", "brand": "Starbucks", "brand:wikidata": "Q37158", "brand:wikipedia": "en:Starbucks", "capacity": "15", "cuisine": "coffee_shop", "description": "Located within Barnes & Noble Bookstoore", "name": "Starbucks", "official_name": "Starbucks Coffee", "opening_hours": "09:00-22:00", "smoking": "no", "takeaway": "yes"}}, {"type": "node", "id": 6518842994, "lat": 38.0057995, "lon": -84.4495175, "tags": {"addr:city": "Lexington", "addr:housenumber": "2901", "addr:postcode": "40509", "addr:state": "KY", "addr:street": "Richmond Road", "addr:unit": "160", "amenity": "cafe", "cuisine": "coffee_shop", "internet_access": "wlan", "internet_access:fee": "no", "name": "Common Grounds", "opening_hours": "Mo-Fr 07:00-18:00; Sa 08:00-18:00; Su 08:00-14:00", "outdoor_seating": "yes"}}, {"type": "node", "id": 7126586470, "lat": 38.0091471, "lon": -84.4536422, "tags": {"addr:city": "Lexington", "addr:housenumber": "2703", "addr:postcode": "40509", "addr:state": "KY", "addr:street": "Richmond Road", "addr:unit": "110", "amenity": "cafe", "brand": "Starbucks", "brand:wikidata": "Q37158", "brand:wikipedia": "en:Starbucks", "cuisine": "coffee_shop", "name": "Starbucks", "official_name": "Starbucks Coffee", "takeaway": "yes"}}, {"type": "node", "id": 7684019389, "lat": 38.0482986, "lon": -84.4980895, "tags": {"addr:housenumber": "125", "addr:street": "Cheapside", "amenity": "cafe", "name": "Nate's Coffee"}}, {"type": "node", "id": 7684025985, "lat": 38.0529842, "lon": -84.5096182, "tags": {"addr:housenumber": "903", "addr:street": "Manchester Street", "addr:unit": "suite 180", "amenity": "cafe", "name": "Manchester Coffee Co."}}, {"type": "way", "id": 230575703, "nodes": [2390667371, 2390667373, 2390667375, 2390667376, 2390667371], "tags": {"addr:city": "Lexington", "addr:housenumber": "575", "addr:postcode": "40508", "addr:street": "North Limestone", "amenity": "cafe", "building": "yes", "name": "North Lime Coffee and Donuts", "phone": "8594146654"}}, {"type": "way", "id": 230578452, "nodes": [4045032865, 4045032880, 4045032816, 4045032790, 2390689494, 2390689497, 2390689503, 2390689485, 4045032910, 4045032924, 4045032941, 4045032930, 2390689492, 4045032865], "tags": {"addr:city": "Lexington", "addr:housenumber": "800", "addr:postcode": "40505", "addr:state": "KY", "addr:street": "North Limestone", "amenity": "cafe", "building": "yes", "cuisine": "coffee_shop", "diet:vegan": "yes", "diet:vegetarian": "yes", "internet_access": "Customer", "internet_access:fee": "no", "internet_access:ssid": "Broomwagon Guest Wifi", "name": "Broomwagon Coffee+Bikes", "opening_hours": "Mo-Fr 8:00-21:00", "outdoor_seating": "yes", "phone": "+1 859 554 6938", "website": "http://broomwagonbikes.com/"}}, {"type": "way", "id": 243876111, "nodes": [2512387315, 2496656012, 2512387317, 2512387318, 2512387315], "tags": {"addr:city": "Lexington", "addr:housename": "Starbucks", "addr:housenumber": "2320", "addr:postcode": "40509", "addr:state": "KY", "addr:street": "Elkhorn Road", "amenity": "cafe", "brand": "Starbucks", "brand:wikidata": "Q37158", "brand:wikipedia": "en:Starbucks", "building": "yes", "cuisine": "coffee_shop", "internet_access": "yes", "name": "Starbucks", "official_name": "Starbucks Coffee", "phone": "(859) 543-1115", "takeaway": "yes"}}, {"type": "way", "id": 375244429, "nodes": [3786306254, 3786306255, 3786306256, 3786307857, 3786306254], "tags": {"amenity": "cafe", "building": "yes", "cuisine": "regional", "name": "Wildcat Pantry"}}, {"type": "way", "id": 401879324, "nodes": [4042865074, 4042865085, 4042865076, 4042865090, 4042865108, 4042865174, 4042865282, 4042865213, 4042865206, 4042865158, 4042865074], "tags": {"addr:city": "Lexington", "addr:housenumber": "3809", "addr:state": "KY", "addr:street": "Dylan Place", "amenity": "cafe", "brand": "Starbucks", "brand:wikidata": "Q37158", "brand:wikipedia": "en:Starbucks", "building": "yes", "cuisine": "coffee_shop", "drive_through": "yes", "name": "Starbucks", "official_name": "Starbucks Coffee", "takeaway": "yes"}}, {"type": "way", "id": 401986049, "nodes": [4043996175, 4043996089, 4043996107, 4043996098, 4043996114, 1586515852, 4043996186, 4043996353, 4043996175], "tags": {"addr:city": "Lexington", "addr:housenumber": "2700", "addr:state": "KY", "addr:street": "Wilhite Drive", "amenity": "cafe", "brand": "Starbucks", "brand:wikidata": "Q37158", "brand:wikipedia": "en:Starbucks", "building": "yes", "cuisine": "coffee_shop", "name": "Starbucks", "official_name": "Starbucks Coffee", "takeaway": "yes"}}, {"type": "way", "id": 402068732, "nodes": [4045014734, 4045014736, 4045014726, 4045014735, 4045014719, 4045014713, 4045014710, 4045014708, 1630858280, 4045014268, 4045014671, 4045014668, 4045014722, 4045014771, 4045014734], "tags": {"addr:city": "Lexington", "addr:housenumber": "870", "addr:postcode": "40504", "addr:state": "KY", "addr:street": "South Broadway", "amenity": "cafe", "brand": "Starbucks", "brand:wikidata": "Q37158", "brand:wikipedia": "en:Starbucks", "building": "yes", "cuisine": "coffee_shop", "drive_through": "yes", "internet_access": "yes", "name": "Starbucks", "official_name": "Starbucks Coffee", "takeaway": "yes"}}, {"type": "way", "id": 403971970, "nodes": [4062601895, 4062601896, 4062601889, 4062601887, 4062601883, 4062601882, 2496183937, 4062601884, 4062601899, 4062601904, 4062601895], "tags": {"addr:city": "Lexington", "addr:housenumber": "4401", "addr:state": "KY", "addr:street": "Old Harrodsburg Road", "amenity": "cafe", "building": "yes", "name": "Coffee Pub"}}, {"type": "way", "id": 404822831, "nodes": [4070762942, 4070762984, 4070763102, 4070762954, 4070762942], "tags": {"addr:city": "Lexington", "addr:housenumber": "471", "addr:postcode": "40508", "addr:state": "KY", "addr:street": "Jefferson Street", "amenity": "cafe", "building": "yes", "cuisine": "coffee_shop", "name": "Jefferson Street Coffee"}}]}